NORAD_CAT_ID,OBJECT_NAME,OBJECT_TYPE,EPOCH,MEAN_MOTION,ECCENTRICITY,INCLINATION,RA_OF_ASC_NODE,ARG_OF_PERICENTER,MEAN_ANOMALY,BSTAR,MEAN_MOTION_DOT,MEAN_MOTION_DDOT,TLE_LINE0,TLE_LINE1,TLE_LINE2,SEMIMAJOR_AXIS,PERIOD,APOGEE,PERIGEE,DECAYED
52632.0,STARLINK-3995,PAYLOAD,2022-06-20 20:00:01,15.73221409,0.0002218,53.2127,256.5031,18.5006,293.0496,-0.00043464,-0.00061241,0.0,0 STARLINK-3995,1 52632U 22052AL  22171.83334491 -.00061241  00000-0 -43464-3 0  9997,2 52632  53.2127 256.5031 0002218  18.5006 293.0496 15.73221409  6200,6727.834,91.532,351.191,348.207,0.0
52632.0,STARLINK-3995,PAYLOAD,2022-06-20 22:00:00,15.73199145,0.0002138,53.2129,256.0901,18.3436,45.4461,-0.00017604,-0.00025255,0.0,0 STARLINK-3995,1 52632U 22052AL  22171.91667824 -.00025255  00000-0 -17604-3 0  9997,2 52632  53.2129 256.0901 0002138  18.3436  45.4461 15.73199145  1307,6727.898,91.533,351.201,348.324,0.0
52632.0,STARLINK-3995,PAYLOAD,2022-06-21 12:00:00,15.73180598,0.0002274,53.2127,253.204,14.5394,114.9572,-0.00013347,-0.00019297,0.0,0 STARLINK-3995,1 52632U 22052AL  22172.50001157 -.00019297  00000-0 -13347-3 0  9993,2 52632  53.2127 253.2040 0002274  14.5394 114.9572 15.73180598  6313,6727.95,91.534,351.345,348.286,0.0
52632.0,STARLINK-3995,PAYLOAD,2022-06-21 14:00:01,15.73144485,0.0002362,53.2128,252.7921,14.799,226.9326,0.00042538,0.00059364,0.0,0 STARLINK-3995,1 52632U 22052AL  22172.58334491  .00059364  00000-0  42538-3 0  9992,2 52632  53.2128 252.7921 0002362  14.7990 226.9326 15.73144485  1308,6728.053000000001,91.536,351.5080000000001,348.329,0.0
52632.0,STARLINK-3995,PAYLOAD,2022-06-21 22:00:00,15.73215478,0.0002211,53.2123,251.141,16.2616,314.3623,-0.00058625,-0.00082163,0.0,0 STARLINK-3995,1 52632U 22052AL  22172.91667824 -.00082163  00000-0 -58625-3 0  9997,2 52632  53.2123 251.1410 0002211  16.2616 314.3623 15.73215478  1307,6727.851,91.532,351.204,348.22900000000016,0.0
52632.0,STARLINK-3995,PAYLOAD,2022-06-22 04:00:00,15.73135402,0.0002144,53.2126,249.9028,21.3217,285.995,0.00060886,0.0008547,0.0,0 STARLINK-3995,1 52632U 22052AL  22173.16667824  .00085470  00000-0  60886-3 0  9999,2 52632  53.2126 249.9028 0002144  21.3217 285.9950 15.73135402  6410,6728.079000000002,91.537,351.38699999999994,348.50199999999984,0.0
52632.0,STARLINK-3995,PAYLOAD,2022-06-22 12:00:00,15.73185396,0.0002419,53.2128,248.2554,20.5561,15.6441,0.0002012,0.00027694,0.0,0 STARLINK-3995,1 52632U 22052AL  22173.50001157  .00027694  00000-0  20120-3 0  9999,2 52632  53.2128 248.2554 0002419  20.5561  15.6441 15.73185396  6472,6727.937,91.534,351.42900000000014,348.1740000000001,0.0
52632.0,STARLINK-3995,PAYLOAD,2022-06-22 14:00:01,15.73172725,0.0002485,53.213,247.8433,19.9015,128.5317,0.00051259,0.00071858,0.0,0 STARLINK-3995,1 52632U 22052AL  22173.58334491  .00071858  00000-0  51259-3 0  9995,2 52632  53.2130 247.8433 0002485  19.9015 128.5317 15.73172725  1300,6727.973000000001,91.535,351.51,348.166,0.0
52632.0,STARLINK-3995,PAYLOAD,2022-06-22 22:00:00,15.73268822,0.0002463,53.2131,246.192,22.8922,214.4781,-0.00074275,-0.00103908,0.0,0 STARLINK-3995,1 52632U 22052AL  22173.91667824 -.00103908  00000-0 -74275-3 0  9998,2 52632  53.2131 246.1920 0002463  22.8922 214.4781 15.73268822  1304,6727.699000000001,91.529,351.221,347.907,0.0
52632.0,STARLINK-3995,PAYLOAD,2022-06-23 12:00:00,15.73204161,0.0002636,53.2129,243.3065,21.8246,281.1882,-4.3169e-05,-6.678e-05,0.0,0 STARLINK-3995,1 52632U 22052AL  22174.50001157 -.00006678  00000-0 -43169-4 0  9990,2 52632  53.2129 243.3065 0002636  21.8246 281.1882 15.73204161  6629,6727.8830000000025,91.533,351.522,347.975,0.0
52632.0,STARLINK-3995,PAYLOAD,2022-06-23 14:00:01,15.7316843,0.0002655,53.213,242.8944,21.4277,33.8296,0.00050965,0.00071427,0.0,0 STARLINK-3995,1 52632U 22052AL  22174.58334491  .00071427  00000-0  50965-3 0  9991,2 52632  53.2130 242.8944 0002655  21.4277  33.8296 15.73168430  1301,6727.985,91.535,351.636,348.064,0.0
52632.0,STARLINK-3995,PAYLOAD,2022-06-23 22:00:00,15.73237323,0.0002472,53.2126,241.2431,21.5336,122.6452,-0.00013788,-0.00019961,0.0,0 STARLINK-3995,1 52632U 22052AL  22174.91667824 -.00019961  00000-0 -13788-3 0  9996,2 52632  53.2126 241.2431 0002472  21.5336 122.6452 15.73237323  1303,6727.7890000000025,91.531,351.31699999999995,347.991,0.0
52632.0,STARLINK-3995,PAYLOAD,2022-06-24 04:00:00,15.73222026,0.0002324,53.2128,240.0053,21.4652,99.4366,-0.00010664,-0.00015576,0.0,0 STARLINK-3995,1 52632U 22052AL  22175.16667824 -.00015576  00000-0 -10664-3 0  9992,2 52632  53.2128 240.0053 0002324  21.4652  99.4366 15.73222026  6739,6727.831999999999,91.532,351.261,348.134,0.0
52632.0,STARLINK-3995,PAYLOAD,2022-06-24 14:00:01,15.73208768,0.0002597,53.213,237.9458,14.7752,307.3049,-0.00029008,-0.00041157,0.0,0 STARLINK-3995,1 52632U 22052AL  22175.58334491 -.00041157  00000-0 -29008-3 0  9995,2 52632  53.2130 237.9458 0002597  14.7752 307.3049 15.73208768  1308,6727.87,91.533,351.482,347.98800000000006,0.0
52632.0,STARLINK-3995,PAYLOAD,2022-06-24 20:00:01,15.73186942,0.0002515,53.213,236.7072,12.0964,286.6778,-0.00014946,-0.00021535,0.0,0 STARLINK-3995,1 52632U 22052AL  22175.83334491 -.00021535  00000-0 -14946-3 0  9996,2 52632  53.2130 236.7072 0002515  12.0964 286.6778 15.73186942  6833,6727.932,91.534,351.48900000000015,348.105,0.0
52632.0,STARLINK-3995,PAYLOAD,2022-06-24 22:00:01,15.7316354,0.0002434,53.2132,236.2943,12.3865,38.6865,0.00021543,0.00029676,0.0,0 STARLINK-3995,1 52632U 22052AL  22175.91668981  .00029676  00000-0  21543-3 0  9992,2 52632  53.2132 236.2943 0002434  12.3865  38.6865 15.73163540  1308,6727.999,91.535,351.50199999999984,348.227,0.0
52632.0,STARLINK-3995,PAYLOAD,2022-06-25 12:00:00,15.73208787,0.0002752,53.2128,233.4092,15.6137,100.9915,0.0002566,0.00035562,0.0,0 STARLINK-3995,1 52632U 22052AL  22176.50001157  .00035562  00000-0  25660-3 0  9999,2 52632  53.2128 233.4092 0002752  15.6137 100.9915 15.73208787  6945,6727.87,91.533,351.587,347.884,0.0
52632.0,STARLINK-3995,PAYLOAD,2022-06-25 14:00:01,15.73202353,0.0002797,53.2128,232.9971,15.1343,213.711,0.00043487,0.00060868,0.0,0 STARLINK-3995,1 52632U 22052AL  22176.58334491  .00060868  00000-0  43487-3 0  9991,2 52632  53.2128 232.9971 0002797  15.1343 213.7110 15.73202353  1306,6727.888000000001,91.533,351.635,347.872,0.0
52632.0,STARLINK-3995,PAYLOAD,2022-06-25 22:00:00,15.7322952,0.0002572,53.2134,231.3455,17.2244,300.5958,0.00030604,0.00042607,0.0,0 STARLINK-3995,1 52632U 22052AL  22176.91667824  .00042607  00000-0  30604-3 0  9995,2 52632  53.2134 231.3455 0002572  17.2244 300.5958 15.73229520  1307,6727.811,91.531,351.406,347.946,0.0
52632.0,STARLINK-3995,PAYLOAD,2022-06-26 12:00:00,15.73257197,0.0002744,53.2146,228.4604,14.754,8.8374,-0.00052308,-0.00073589,0.0,0 STARLINK-3995,1 52632U 22052AL  22177.50001157 -.00073589  00000-0 -52308-3 0  9992,2 52632  53.2146 228.4604 0002744  14.7540   8.8374 15.73257197  7100,6727.732,91.53,351.4430000000001,347.751,0.0
52632.0,STARLINK-3995,PAYLOAD,2022-06-26 14:00:01,15.73228723,0.0002788999999999,53.2145,228.0481,13.2672,122.643,-0.00028678,-0.00040734,0.0,0 STARLINK-3995,1 52632U 22052AL  22177.58335648 -.00040734  00000-0 -28678-3 0  9994,2 52632  53.2145 228.0481 0002789  13.2672 122.6430 15.73228723  1304,6727.813,91.532,351.555,347.802,0.0
52632.0,STARLINK-3995,PAYLOAD,2022-06-26 22:00:00,15.73158991,0.0002655,53.2147,226.3965,14.4996,210.3153,0.00018008,0.00024685,0.0,0 STARLINK-3995,1 52632U 22052AL  22177.91667824  .00024685  00000-0  18008-3 0  9996,2 52632  53.2147 226.3965 0002655  14.4996 210.3153 15.73158991  1304,6728.012,91.536,351.663,348.091,0.0
52632.0,STARLINK-3995,PAYLOAD,2022-06-27 04:00:00,15.73196231,0.0002638,53.2147,225.1593,18.2129,183.2528,-0.00045053,-0.00063379,0.0,0 STARLINK-3995,1 52632U 22052AL  22178.16667824 -.00063379  00000-0 -45053-3 0  9999,2 52632  53.2147 225.1593 0002638  18.2129 183.2528 15.73196231  7207,6727.906,91.533,351.546,347.996,0.0
52632.0,STARLINK-3995,PAYLOAD,2022-06-27 14:00:01,15.73139729,0.0002976,53.2139,223.0996,17.0355,25.5281,-0.00013108,-0.00018934,0.0,0 STARLINK-3995,1 52632U 22052AL  22178.58334491 -.00018934  00000-0 -13108-3 0  9999,2 52632  53.2139 223.0996 0002976  17.0355  25.5281 15.73139729  1303,6728.066999999999,91.537,351.934,347.93,0.0
52632.0,STARLINK-3995,PAYLOAD,2022-06-27 20:00:01,15.73120848,0.0002722,53.2138,221.8609,16.2911,2.9909,-3.9726e-05,-6.175e-05,0.0,0 STARLINK-3995,1 52632U 22052AL  22178.83335648 -.00006175  00000-0 -39726-4 0  9991,2 52632  53.2138 221.8609 0002722  16.2911   2.9909 15.73120848  7301,6728.121,91.538,351.81699999999995,348.154,0.0
52632.0,STARLINK-3995,PAYLOAD,2022-06-27 22:00:00,15.73089361,0.0002662,53.2137,221.4482,15.2383,116.1957,0.00046736,0.00065177,0.0,0 STARLINK-3995,1 52632U 22052AL  22178.91667824  .00065177  00000-0  46736-3 0  9997,2 52632  53.2137 221.4482 0002662  15.2383 116.1957 15.73089361  1309,6728.2109999999975,91.54,351.867,348.285,0.0
52632.0,STARLINK-3995,PAYLOAD,2022-06-28 04:00:00,15.73181059,0.0002494,53.214,220.2111,14.130999999999998,93.9884,0.00023512,0.00032481,0.0,0 STARLINK-3995,1 52632U 22052AL  22179.16667824  .00032481  00000-0  23512-3 0  9994,2 52632  53.2140 220.2111 0002494  14.1310  93.9884 15.73181059  7360,6727.949000000001,91.534,351.492,348.136,0.0
52632.0,STARLINK-3995,PAYLOAD,2022-06-28 14:00:01,15.73179186,0.0002829,53.2137,218.1514,10.6259,298.6307,0.00043638,0.00061022,0.0,0 STARLINK-3995,1 52632U 22052AL  22179.58334491  .00061022  00000-0  43638-3 0  9995,2 52632  53.2137 218.1514 0002829  10.6259 298.6307 15.73179186  1304,6727.955,91.534,351.723,347.916,0.0
52632.0,STARLINK-3995,PAYLOAD,2022-06-28 20:00:01,15.73244283,0.0002628999999999,53.214,216.9124,10.4054,275.5409,-0.00081222,-0.00113328,0.0,0 STARLINK-3995,1 52632U 22052AL  22179.83334491 -.00113328  00000-0 -81222-3 0  9993,2 52632  53.2140 216.9124 0002629  10.4054 275.5409 15.73244283  7461,6727.769,91.531,351.403,347.865,0.0
